CTC2_L_00659007-03
1 88919U 25610WC  26070.40853009  .00000000  00000+0  00000-0 0  9992
2 88919  50.0000 180.0000 0000000   0.0000 144.0000  3.21836079    10
CTC2_L_00659007-04
1 88920U 23709KO  26070.40853009  .00000000  00000+0  00000-0 0  9991
2 88920  50.0000 180.0000 0000000   0.0000 180.0000  3.21836079    12
CTC2_L_00659007-05
1 88921U 25067OW  26070.40853009  .00000000  00000+0  00000-0 0  9991
2 88921  50.0000 180.0000 0000000   0.0000 216.0000  3.21836079    13
CTC2_L_00659007-06
1 88922U 24376YB  26070.40853009  .00000000  00000+0  00000-0 0  9994
2 88922  50.0000 180.0000 0000000   0.0000 252.0000  3.21836079    14
CTC2_L_00659007-07
1 88923U 25018XP  26070.40853009  .00000000  00000+0  00000-0 0  9999
2 88923  50.0000 180.0000 0000000   0.0000 288.0000  3.21836079    14
CTC2_L_00659007-08
1 88924U 24310VP  26070.40853009  .00000000  00000+0  00000-0 0  9994
2 88924  50.0000 180.0000 0000000   0.0000 324.0000  3.21836079    16
CTC2_L_00659007-09
1 88925U 24947IG  26070.40853009  .00000000  00000+0  00000-0 0  9991
2 88925  50.0000 180.0000 0000000   0.0000   0.0000  3.21836079    18
CTC2_L_00659007-10
1 88926U 22229SL  26070.40853009  .00000000  00000+0  00000-0 0  9993
2 88926  50.0000 180.0000 0000000   0.0000  36.0000  3.21836079    18
CTC2_L_00659008-01
1 88927U 24443CQ  26070.40853009  .00000000  00000+0  00000-0 0  9994
2 88927  50.0000 210.0000 0000000   0.0000  84.0000  3.21836079    16
CTC2_L_00659008-02
1 88928U 25596XF  26070.40853009  .00000000  00000+0  00000-0 0  9995
2 88928  50.0000 210.0000 0000000   0.0000 120.0000  3.21836079    18
CTC2_L_00659008-03
1 88929U 25267OC  26070.40853009  .00000000  00000+0  00000-0 0  9991
2 88929  50.0000 210.0000 0000000   0.0000 156.0000  3.21836079    18
CTC2_L_00659008-04
1 88930U 26497ON  26070.40853009  .00000000  00000+0  00000-0 0  9999
2 88930  50.0000 210.0000 0000000   0.0000 192.0000  3.21836079    10
CTC2_L_00659008-05
1 88931U 26616WW  26070.40853009  .00000000  00000+0  00000-0 0  9993
2 88931  50.0000 210.0000 0000000   0.0000 228.0000  3.21836079    11
CTC2_L_00659008-06
1 88932U 23385NO  26070.40853009  .00000000  00000+0  00000-0 0  9994
2 88932  50.0000 210.0000 0000000   0.0000 264.0000  3.21836079    12
CTC2_L_00659008-07
1 88933U 26564XF  26070.40853009  .00000000  00000+0  00000-0 0  9997
2 88933  50.0000 210.0000 0000000   0.0000 300.0000  3.21836079    14
CTC2_L_00659008-08
1 88934U 22167ZP  26070.40853009  .00000000  00000+0  00000-0 0  9993
2 88934  50.0000 210.0000 0000000   0.0000 336.0000  3.21836079    14
CTC2_L_00659008-09
1 88935U 24419GH  26070.40853009  .00000000  00000+0  00000-0 0  9996
2 88935  50.0000 210.0000 0000000   0.0000  12.0000  3.21836079    16
CTC2_L_00659008-10
1 88936U 25135AX  26070.40853009  .00000000  00000+0  00000-0 0  9993
2 88936  50.0000 210.0000 0000000   0.0000  48.0000  3.21836079    16
CTC2_L_00659009-01
1 88937U 24056VE  26070.40853009  .00000000  00000+0  00000-0 0  9995
2 88937  50.0000 240.0000 0000000   0.0000  96.0000  3.21836079    13
CTC2_L_00659009-02
1 88938U 24990R   26070.40853009  .00000000  00000+0  00000-0 0  9993
2 88938  50.0000 240.0000 0000000   0.0000 132.0000  3.21836079    15
CTC2_L_00659009-03
1 88939U 26838XS  26070.40853009  .00000000  00000+0  00000-0 0  9997
2 88939  50.0000 240.0000 0000000   0.0000 168.0000  3.21836079    15
CTC2_L_00659009-04
1 88940U 22623NN  26070.40853009  .00000000  00000+0  00000-0 0  9997
2 88940  50.0000 240.0000 0000000   0.0000 204.0000  3.21836079    18
CTC2_L_00659009-05
1 88941U 22441RE  26070.40853009  .00000000  00000+0  00000-0 0  9996
2 88941  50.0000 240.0000 0000000   0.0000 240.0000  3.21836079    19
CTC2_L_00659009-06
1 88942U 26841SY  26070.40853009  .00000000  00000+0  00000-0 0  9995
2 88942  50.0000 240.0000 0000000   0.0000 276.0000  3.21836079    19
CTC2_L_00659009-07
1 88943U 22729DP  26070.40853009  .00000000  00000+0  00000-0 0  9997
2 88943  50.0000 240.0000 0000000   0.0000 312.0000  3.21836079    11
CTC2_L_00659009-08
1 88944U 25479VF  26070.40853009  .00000000  00000+0  00000-0 0  9993
2 88944  50.0000 240.0000 0000000   0.0000 348.0000  3.21836079    11
CTC2_L_00659009-09
1 88945U 22214L   26070.40853009  .00000000  00000+0  00000-0 0  9998
2 88945  50.0000 240.0000 0000000   0.0000  24.0000  3.21836079    13
CTC2_L_00659009-10
1 88946U 26328JR  26070.40853009  .00000000  00000+0  00000-0 0  9999
2 88946  50.0000 240.0000 0000000   0.0000  60.0000  3.21836079    14
CTC2_L_00659010-01
1 88947U 22583FE  26070.40853009  .00000000  00000+0  00000-0 0  9999
2 88947  50.0000 270.0000 0000000   0.0000 108.0000  3.21836079    11
CTC2_L_00659010-02
1 88948U 22868ZN  26070.40853009  .00000000  00000+0  00000-0 0  9996
2 88948  50.0000 270.0000 0000000   0.0000 144.0000  3.21836079    12
CTC2_L_00659010-03
1 88949U 23725MA  26070.40853009  .00000000  00000+0  00000-0 0  9990
2 88949  50.0000 270.0000 0000000   0.0000 180.0000  3.21836079    13
CTC2_L_00659010-04
1 88950U 26532GF  26070.40853009  .00000000  00000+0  00000-0 0  9991
2 88950  50.0000 270.0000 0000000   0.0000 216.0000  3.21836079    15
CTC2_L_00659010-05
1 88951U 25209NY  26070.40853009  .00000000  00000+0  00000-0 0  9992
2 88951  50.0000 270.0000 0000000   0.0000 252.0000  3.21836079    16
CTC2_L_00659010-06
1 88952U 24696BT  26070.40853009  .00000000  00000+0  00000-0 0  9992
2 88952  50.0000 270.0000 0000000   0.0000 288.0000  3.21836079    16
CTC2_L_00659010-07
1 88953U 22978MB  26070.40853009  .00000000  00000+0  00000-0 0  9994
2 88953  50.0000 270.0000 0000000   0.0000 324.0000  3.21836079    18
CTC2_L_00659010-08
1 88954U 23262MY  26070.40853009  .00000000  00000+0  00000-0 0  9992
2 88954  50.0000 270.0000 0000000   0.0000   0.0000  3.21836079    10
CTC2_L_00659010-09
1 88955U 24244JN  26070.40853009  .00000000  00000+0  00000-0 0  9994
2 88955  50.0000 270.0000 0000000   0.0000  36.0000  3.21836079    10
CTC2_L_00659010-10
1 88956U 22601MP  26070.40853009  .00000000  00000+0  00000-0 0  9990
2 88956  50.0000 270.0000 0000000   0.0000  72.0000  3.21836079    11
CTC2_L_00659011-01
1 88957U 22576OR  26070.40853009  .00000000  00000+0  00000-0 0  9992
2 88957  50.0000 300.0000 0000000   0.0000 120.0000  3.21836079    10
CTC2_L_00659011-02
1 88958U 24959VE  26070.40853009  .00000000  00000+0  00000-0 0  9990
2 88958  50.0000 300.0000 0000000   0.0000 156.0000  3.21836079    10
CTC2_L_00659011-03
1 88959U 23496QT  26070.40853009  .00000000  00000+0  00000-0 0  9996
2 88959  50.0000 300.0000 0000000   0.0000 192.0000  3.21836079    11
CTC2_L_00659011-04
1 88960U 26740EL  26070.40853009  .00000000  00000+0  00000-0 0  9993
2 88960  50.0000 300.0000 0000000   0.0000 228.0000  3.21836079    13
CTC2_L_00659011-05
1 88961U 26951CD  26070.40853009  .00000000  00000+0  00000-0 0  9998
2 88961  50.0000 300.0000 0000000   0.0000 264.0000  3.21836079    14
CTC2_L_00659011-06
1 88962U 25292BV  26070.40853009  .00000000  00000+0  00000-0 0  9996
2 88962  50.0000 300.0000 0000000   0.0000 300.0000  3.21836079    16
CTC2_L_00659011-07
1 88963U 22731XI  26070.40853009  .00000000  00000+0  00000-0 0  9992
2 88963  50.0000 300.0000 0000000   0.0000 336.0000  3.21836079    16
CTC2_L_00659011-08
1 88964U 23536ZJ  26070.40853009  .00000000  00000+0  00000-0 0  9997
2 88964  50.0000 300.0000 0000000   0.0000  12.0000  3.21836079    18
CTC2_L_00659011-09
1 88965U 26700UD  26070.40853009  .00000000  00000+0  00000-0 0  9994
2 88965  50.0000 300.0000 0000000   0.0000  48.0000  3.21836079    18
CTC2_L_00659011-10
1 88966U 25726OK  26070.40853009  .00000000  00000+0  00000-0 0  9992
2 88966  50.0000 300.0000 0000000   0.0000  84.0000  3.21836079    19
CTC2_L_00659012-01
1 88967U 22343CM  26070.40853009  .00000000  00000+0  00000-0 0  9995
2 88967  50.0000 330.0000 0000000   0.0000 132.0000  3.21836079    17
CTC2_L_00659012-02
1 88968U 25925DJ  26070.40853009  .00000000  00000+0  00000-0 0  9995
2 88968  50.0000 330.0000 0000000   0.0000 168.0000  3.21836079    17
CTC2_L_00659012-03
1 88969U 22957VK  26070.40853009  .00000000  00000+0  00000-0 0  9998
2 88969  50.0000 330.0000 0000000   0.0000 204.0000  3.21836079    19
CTC2_L_00659012-04
1 88970U 23503ZM  26070.40853009  .00000000  00000+0  00000-0 0  9998
2 88970  50.0000 330.0000 0000000   0.0000 240.0000  3.21836079    11
CTC2_L_00659012-05
1 88971U 23270ZF  26070.40853009  .00000000  00000+0  00000-0 0  9990
2 88971  50.0000 330.0000 0000000   0.0000 276.0000  3.21836079    11
CTC2_L_00659012-06
1 88972U 26996LO  26070.40853009  .00000000  00000+0  00000-0 0  9999
2 88972  50.0000 330.0000 0000000   0.0000 312.0000  3.21836079    13
CTC2_L_00659012-07
1 88973U 25941CW  26070.40853009  .00000000  00000+0  00000-0 0  9999
2 88973  50.0000 330.0000 0000000   0.0000 348.0000  3.21836079    13
CTC2_L_00659012-08
1 88974U 22955QN  26070.40853009  .00000000  00000+0  00000-0 0  9992
2 88974  50.0000 330.0000 0000000   0.0000  24.0000  3.21836079    15
CTC2_L_00659012-09
1 88975U 26711MV  26070.40853009  .00000000  00000+0  00000-0 0  9997
2 88975  50.0000 330.0000 0000000   0.0000  60.0000  3.21836079    16
CTC2_L_00659012-10
1 88976U 26894WM  26070.40853009  .00000000  00000+0  00000-0 0  9990
2 88976  50.0000 330.0000 0000000   0.0000  96.0000  3.21836079    16
